FENGYUN 3D              
1 43010U 17072A   26201.90470534  .00000227  00000+0  12925-3 0  9990
2 43010  99.0154 176.9401 0001164   2.6103 357.5079 14.19746042449775
NOAA 20 (JPSS-1)        
1 43013U 17073A   26201.90521465  .00000026  00000+0  33131-4 0  9994
2 43013  98.7772 141.0693 0001581 118.5078 241.6257 14.19517232449258
GOES 17                 
1 43226U 18022A   26201.88578446 -.00000183  00000+0  00000+0 0  9992
2 43226   1.0215  85.1801 0000606  58.0922  24.7624  1.00272135 30761
SENTINEL-3B             
1 43437U 18039A   26201.78190778  .00000036  00000+0  32817-4 0  9993
2 43437  98.6231 268.8292 0001267 118.6255 241.5053 14.26737354428919
FENGYUN 2H              
1 43491U 18050A   26201.93615543 -.00000128  00000+0  00000+0 0  9992
2 43491   3.1164  78.6820 0002087 128.8299 147.2467  1.00267074 29778
METOP-C                 
1 43689U 18087A   26201.85395765  .00000044  00000+0  39949-4 0  9998
2 43689  98.6625 260.8389 0002097  86.5515 273.5902 14.21503872399611
GEO-KOMPSAT-2A          
1 43823U 18100A   26201.93517113 -.00000344  00000+0  00000+0 0  9991
2 43823   0.0289 144.4621 0002432 313.0409 306.1207  1.00272115 27966
METEOR-M2 2             
1 44387U 19038A   26201.96272762 -.00000190  00000+0 -62237-4 0  9994
2 44387  98.9171 189.7500 0000332 349.7750  10.3422 14.24372839366107
ARKTIKA-M 1             
1 47719U 21016A   26198.89672400 -.00000295  00000+0  00000+0 0  9995
2 47719  63.2571  53.1467 7298516 270.0868  14.5016  2.00610215 39409
FENGYUN 3E              
1 49008U 21062A   26201.95532304 -.00000176  00000+0 -62060-4 0  9997
2 49008  98.7509 204.9880 0001968  30.3636 329.7654 14.19906091261372
GOES 18                 
1 51850U 22021A   26201.73358698  .00000096  00000+0  00000+0 0  9999
2 51850   0.0160 142.8122 0000372  11.9765 270.7972  1.00270960  6925
NOAA 21 (JPSS-2)        
1 54234U 22150A   26201.86693530  .00000033  00000+0  36076-4 0  9990
2 54234  98.7059 140.0905 0002918  94.2458 265.9052 14.19541711191328
METEOSAT-12 (MTG-I1)    
1 54743U 22170C   26201.83210100 -.00000009  00000+0  00000+0 0  9999
2 54743   0.7309  20.6931 0004073  80.9959 136.0830  1.00269442 13316
TIANMU-1 03             
1 55973U 23039A   26201.92792919  .00011177  00000+0  21457-3 0  9993
2 55973  97.5252  17.2440 0002078   5.5092 354.6180 15.48148571186058
TIANMU-1 04             
1 55974U 23039B   26201.90402984  .00011343  00000+0  21300-3 0  9994
2 55974  97.5192  16.3758 0002443 350.0579  10.0623 15.48779163186061
TIANMU-1 05             
1 55975U 23039C   26201.91034773  .00010381  00000+0  19996-3 0  9992
2 55975  97.5236  16.8283 0002469  31.7928 328.3471 15.48072016186034
TIANMU-1 06             
1 55976U 23039D   26201.90959627  .00010863  00000+0  20483-3 0  9994
2 55976  97.5244  17.4976 0002509  20.8212 339.3140 15.48673849186069
FENGYUN 3G              
1 56232U 23055A   26201.94310975  .00016970  00000+0  26400-3 0  9999
2 56232  49.9913 171.9015 0006866  82.9394 277.2354 15.53958956185257
METEOR-M2 3             
1 57166U 23091A   26201.96486144 -.00000026  00000+0  74034-5 0  9994
2 57166  98.6064 256.2486 0005085  77.4855 282.6892 14.24049220159322
TIANMU-1 07             
1 57399U 23101A   26201.91294361  .00004068  00000+0  14197-3 0  9998
2 57399  97.2574 251.8110 0003333  52.6313 307.5232 15.30155243166801
TIANMU-1 08             
1 57400U 23101B   26201.94489237  .00004211  00000+0  14685-3 0  9994
2 57400  97.2562 251.6079 0004040  30.7241 329.4235 15.30158919166805
TIANMU-1 09             
1 57401U 23101C   26201.92749880  .00004396  00000+0  15296-3 0  9999
2 57401  97.2520 250.9896 0003922  51.6125 308.5468 15.30201564166801
TIANMU-1 10             
1 57402U 23101D   26201.89574295  .00004260  00000+0  14842-3 0  9998
2 57402  97.2600 252.0436 0005129  38.5923 321.5684 15.30174656166799
FENGYUN 3F              
1 57490U 23111A   26201.93842269  .00000005  00000+0  22802-4 0  9999
2 57490  98.6821 271.3157 0001163  75.2411 284.8894 14.19943999153659
ARKTIKA-M 2             
1 58584U 23198A   26196.17500106  .00000129  00000+0  00000+0 0  9997
2 58584  63.2178 151.2342 6910736 267.3397  18.7345  2.00608092 18886
TIANMU-1 11             
1 58645U 23205A   26201.99450301  .00003659  00000+0  13951-3 0  9996
2 58645  97.3446 223.0268 0007078 236.3286 123.7278 15.27299319142687
TIANMU-1 12             
1 58646U 23205B   26201.83671704  .00000979  00000+0  39680-4 0  9992
2 58646  97.3436 222.6157 0006327 215.7107 144.3709 15.26977641142642
TIANMU-1 13             
1 58647U 23205C   26202.00101087  .00003934  00000+0  15058-3 0  9991
2 58647  97.3463 223.0599 0006477 189.6869 170.4246 15.27124409142663
TIANMU-1 14             
1 58648U 23205D   26201.98523806  .00003766  00000+0  14408-3 0  9996
2 58648  97.3399 222.1997 0007055 197.0511 163.0492 15.27168724142663
TIANMU-1 19             
1 58660U 23208A   26201.92879046  .00005711  00000+0  18720-3 0  9990
2 58660  97.4525 318.4171 0005160 177.8911 182.2354 15.32030262142499
