OBJECT_NAME,OBJECT_ID,EPOCH,MEAN_MOTION,ECCENTRICITY,INCLINATION,RA_OF_ASC_NODE,ARG_OF_PERICENTER,MEAN_ANOMALY,EPHEMERIS_TYPE,CLASSIFICATION_TYPE,NORAD_CAT_ID,ELEMENT_SET_NO,REV_AT_EPOCH,BSTAR,MEAN_MOTION_DOT,MEAN_MOTION_DDOT
FENGYUN 3D,2017-072A,2026-07-20T21:42:46.541376,14.19746042,.0001164,99.0154,176.9401,2.6103,357.5079,0,U,43010,999,44977,.12924523E-3,.227E-5,0
NOAA 20 (JPSS-1),2017-073A,2026-07-20T21:43:30.545760,14.19517232,.00015813,98.7772,141.0693,118.5078,241.6257,0,U,43013,999,44925,.33130726E-4,.26E-6,0
GOES 17,2018-022A,2026-07-20T21:15:31.777344,1.00272135,.00006066,1.0215,85.1801,58.0922,24.7624,0,U,43226,999,3076,0,-.183E-5,0
SENTINEL-3B,2018-039A,2026-07-20T18:45:56.832192,14.26737354,.00012677,98.6231,268.8292,118.6255,241.5053,0,U,43437,999,42891,.32817374E-4,.36E-6,0
FENGYUN 2H,2018-050A,2026-07-20T22:28:03.829152,1.00267074,.00020877,3.1164,78.6820,128.8299,147.2467,0,U,43491,999,2977,0,-.128E-5,0
METOP-C,2018-087A,2026-07-20T20:29:41.940960,14.21503872,.00020972,98.6625,260.8389,86.5515,273.5902,0,U,43689,999,39961,.39948677E-4,.44E-6,0
GEO-KOMPSAT-2A,2018-100A,2026-07-20T22:26:38.785632,1.00272115,.00024324,0.0289,144.4621,313.0409,306.1207,0,U,43823,999,2796,0,-.344E-5,0
METEOR-M2 2,2019-038A,2026-07-20T23:06:19.666368,14.24372839,.0000332,98.9171,189.7500,349.7750,10.3422,0,U,44387,999,36610,-.62236993E-4,-.19E-5,0
ARKTIKA-M 1,2021-016A,2026-07-17T21:31:16.953600,2.00610215,.7298516,63.2571,53.1467,270.0868,14.5016,0,U,47719,999,3940,0,-.295E-5,0
FENGYUN 3E,2021-062A,2026-07-20T22:55:39.910656,14.19906091,.00019687,98.7509,204.9880,30.3636,329.7654,0,U,49008,999,26137,-.62059554E-4,-.176E-5,0
GOES 18,2022-021A,2026-07-20T17:36:21.915072,1.00270960,.00003722,0.0160,142.8122,11.9765,270.7972,0,U,51850,999,692,0,.96E-6,0
NOAA 21 (JPSS-2),2022-150A,2026-07-20T20:48:23.209920,14.19541711,.00029186,98.7059,140.0905,94.2458,265.9052,0,U,54234,999,19132,.36076039E-4,.33E-6,0
METEOSAT-12 (MTG-I1),2022-170C,2026-07-20T19:58:13.526400,1.00269442,.00040731,0.7309,20.6931,80.9959,136.0830,0,U,54743,999,1331,0,-.9E-7,0
TIANMU-1 03,2023-039A,2026-07-20T22:16:13.082016,15.48148571,.00020784,97.5252,17.2440,5.5092,354.6180,0,U,55973,999,18605,.21457296E-3,.11177E-3,0
TIANMU-1 04,2023-039B,2026-07-20T21:41:48.178176,15.48779163,.00024436,97.5192,16.3758,350.0579,10.0623,0,U,55974,999,18606,.2130047E-3,.11343E-3,0
TIANMU-1 05,2023-039C,2026-07-20T21:50:54.043872,15.48072016,.00024696,97.5236,16.8283,31.7928,328.3471,0,U,55975,999,18603,.19996481E-3,.10381E-3,0
TIANMU-1 06,2023-039D,2026-07-20T21:49:49.117728,15.48673849,.00025094,97.5244,17.4976,20.8212,339.3140,0,U,55976,999,18606,.2048265E-3,.10863E-3,0
FENGYUN 3G,2023-055A,2026-07-20T22:38:04.682400,15.53958956,.00068661,49.9913,171.9015,82.9394,277.2354,0,U,56232,999,18525,.26400437E-3,.1697E-3,0
METEOR-M2 3,2023-091A,2026-07-20T23:09:24.028416,14.24049220,.00050851,98.6064,256.2486,77.4855,282.6892,0,U,57166,999,15932,.7403434E-5,-.26E-6,0
TIANMU-1 07,2023-101A,2026-07-20T21:54:38.327904,15.30155243,.00033337,97.2574,251.8110,52.6313,307.5232,0,U,57399,999,16680,.14197023E-3,.4068E-4,0
TIANMU-1 08,2023-101B,2026-07-20T22:40:38.700768,15.30158919,.00040406,97.2562,251.6079,30.7241,329.4235,0,U,57400,999,16680,.14685307E-3,.4211E-4,0
TIANMU-1 09,2023-101C,2026-07-20T22:15:35.896320,15.30201564,.00039223,97.2520,250.9896,51.6125,308.5468,0,U,57401,999,16680,.15296434E-3,.4396E-4,0
TIANMU-1 10,2023-101D,2026-07-20T21:29:52.190880,15.30174656,.00051299,97.2600,252.0436,38.5923,321.5684,0,U,57402,999,16679,.14842138E-3,.426E-4,0
FENGYUN 3F,2023-111A,2026-07-20T22:31:19.720416,14.19943999,.00011632,98.6821,271.3157,75.2411,284.8894,0,U,57490,999,15365,.22801702E-4,.5E-7,0
ARKTIKA-M 2,2023-198A,2026-07-15T04:12:00.091584,2.00608092,.69107365,63.2178,151.2342,267.3397,18.7345,0,U,58584,999,1888,0,.129E-5,0
TIANMU-1 11,2023-205A,2026-07-20T23:52:05.060064,15.27299319,.00070789,97.3446,223.0268,236.3286,123.7278,0,U,58645,999,14268,.1395138E-3,.3659E-4,0
TIANMU-1 12,2023-205B,2026-07-20T20:04:52.352256,15.26977641,.00063276,97.3436,222.6157,215.7107,144.3709,0,U,58646,999,14264,.39679707E-4,.979E-5,0
TIANMU-1 13,2023-205C,2026-07-21T00:01:27.339168,15.27124409,.00064775,97.3463,223.0599,189.6869,170.4246,0,U,58647,999,14266,.1505812E-3,.3934E-4,0
TIANMU-1 14,2023-205D,2026-07-20T23:38:44.568384,15.27168724,.00070559,97.3399,222.1997,197.0511,163.0492,0,U,58648,999,14266,.14408491E-3,.3766E-4,0
TIANMU-1 19,2023-208A,2026-07-20T22:17:27.495744,15.32030262,.00051608,97.4525,318.4171,177.8911,182.2354,0,U,58660,999,14249,.18720092E-3,.5711E-4,0
